EUTELSAT KONNECT        
1 45027U 20005B   25207.07961457  .00000039  00000+0  00000+0 0  9990
2 45027   0.0574  92.9452 0001423  95.2265 151.7015  1.00276041 21044
EUTELSAT QUANTUM        
1 49056U 21069B   25206.91502852  .00000114  00000+0  00000+0 0  9993
2 49056   0.0565 271.8221 0001802 226.6915 182.4326  1.00270117 14658
EUTELSAT KONNECT VHTS   
1 53765U 22110A   25206.93725126  .00000006  00000+0  00000+0 0  9996
2 53765   0.0557  94.8262 0002395  38.5986 150.5764  1.00272525  3559
EUTELSAT HOTBIRD 13F    
1 54048U 22134A   25206.34056291  .00000075  00000+0  00000+0 0  9998
2 54048   0.0654 280.5236 0001969  73.6750  84.6868  1.00270951 10104
EUTELSAT HOTBIRD 13G    
1 54225U 22146A   25207.05436675  .00000075  00000+0  00000+0 0  9995
2 54225   0.0545 243.6458 0002188 300.6653 152.2128  1.00272955  9942
EUTELSAT 10B            
1 54259U 22157A   25206.93725126  .00000056  00000+0  00000+0 0  9991
2 54259   0.0502  92.5930 0001508  52.6274 146.0151  1.00270986  9743
EUTELSAT 36D            
1 59346U 24059A   25206.98747376  .00000144  00000+0  00000+0 0  9990
2 59346   0.0229  77.4762 0000100  64.0291 193.8002  1.00269786  4868
